format  = 'OEF2.0'       ! file format
rectype = 'ML'           ! record type (1L/ML)
refsys  = ECLM J2000     ! default reference system
END_OF_HEADER
219071
! Equinoctial elements: a, e*sin(LP), e*cos(LP), tan(i/2)*sin(LN), tan(i/2)*cos(LN), mean long.
 EQU   1.0527029860680595E+00  -0.139211091348823  -0.245233890462983   -0.094101182505519   -0.149307503614218 347.1034789827421
 MJD     57400.000000000 TDT
 MAG  17.058  0.150
! Non-grav parameters: model used, actual number in use, dimension
 LSP   0  0    6
! RMS    1.54892E-09   7.10791E-08   5.10485E-08   4.17798E-08   6.22866E-08   9.52180E-06
! EIG   9.14534E-10   3.08955E-08   4.25309E-08   4.85225E-08   7.00477E-08   1.75723E-07
! WEA   0.00583  -0.29975  -0.14893   0.03966   0.00534  -0.94145
 COV   2.399152484901700E-18 -2.126874423217433E-17 -3.375956189116018E-17
 COV   3.618197174501928E-18  3.237376582356879E-18 -1.025183059798094E-14
 COV   5.052238968903597E-15  9.921706572523549E-16 -6.383995004561338E-16
 COV  -6.300993833365487E-16  4.603899279477602E-13  2.605953374962997E-15
 COV   4.665719178043043E-17  3.428760971358374E-16  2.383655277755730E-13
 COV   1.745551322048102E-15  1.479332750400511E-15 -5.862040102147350E-14
 COV   3.879619770941252E-15  3.187709458610695E-15  9.066460602958941E-11
 NOR   1.195325256434407E+18 -1.408567734372379E+16  3.066769884486478E+15
 NOR   3.233986145737854E+15 -4.954386163745365E+15  2.008891374457289E+14
 NOR   5.526195564757586E+14 -5.040398215925087E+12 -8.292512241170117E+12
 NOR   1.087248164742886E+14 -4.394831782338606E+12  5.243087588126596E+14
 NOR  -2.217935083875713E+13 -4.042103397268207E+13 -1.019007262874147E+12
 NOR   8.888256707479305E+14 -3.418672448542314E+14  1.052802794733626E+12
 NOR   4.144992545999165E+14 -1.241653828413410E+12  5.946518589206783E+10
